district,state,lat,lon,city_name
Thrissur,Kerala,10.5256264,76.2132542,"Thrissur, Kerala, 680001, India"
Alappuzha,Kerala,9.48870055,76.4125641096963,"Alappuzha, Kerala, India"
Kasaragod,Kerala,12.42171305,75.1904497726632,"Kasaragod, Kerala, India"
Pathanamthitta,Kerala,9.2834044,76.9606627590736,"Pathanamthitta, Kerala, India"
Kannur,Kerala,11.8762254,75.3738043,"Kannur, Kannur district, Kerala, 670012, India"
Ernakulam,Kerala,10.0383947,76.5074145180173,"Ernakulam, Kerala, India"
Kottayam,Kerala,9.62857045,76.6455250291479,"Kottayam, Kerala, India"
Thiruvananthapuram,Kerala,8.5058909,76.9570481,"Thiruvananthapuram, Kerala, 695001, India"
Idukki,Kerala,9.8497872,76.9797914,"Idukki, Kerala, India"
Malappuram,Kerala,11.10684475,76.1099551046666,"Malappuram, Kerala, India"
Kozhikode,Kerala,11.2446144,75.7759372,"Kozhikode, Kerala, 673002, India"
Palakkad,Kerala,10.7691989,76.6512469,"Palakkad, Palakkad district, Kerala, 678001, India"
Wayanad,Kerala,11.715219,76.126902946582,"Wayanad, Kerala, India"
Kollam,Kerala,8.96699645,76.8582888034586,"Kollam, Kerala, India"
East Delhi,Delhi,28.6204767,77.3091807134442,"East Delhi, Delhi, India"
South West Delhi,Delhi,28.58644805,76.9791529846269,"South West Delhi, Delhi, India"
West Delhi,Delhi,28.6479519,77.0855654108861,"West Delhi, Delhi, India"
North Delhi,Delhi,28.6141793,77.2022662,"New Delhi, Delhi, India"
New Delhi,Delhi,28.6141793,77.2022662,"New Delhi, Delhi, India"
South Delhi,Delhi,28.4851694,77.1963797238161,"South Delhi, Delhi, India"
North East Delhi,Delhi,28.72330795,77.2668565077867,"North East Delhi, Delhi, India"
North West Delhi,Delhi,28.6141793,77.2022662,"New Delhi, Delhi, India"
Unknown,Delhi,6.40258995,43.3983820184895,"Unknown, Somali Region, Ethiopia"
Hyderabad,Telangana,17.38878595,78.4610647345315,"Hyderabad, Telangana, India"
Karimnagar,Telangana,18.4346438,79.1322648,"Karimnagar, Karimnagar mandal, Karimnagar, Telangana, 505001, India"
Bhadradri Kothagudem,Telangana,17.71534525,80.5714976177871,"Bhadradri Kothagudem, Telangana, India"
Ranga Reddy,Telangana,12.9554461,80.2530374,"Ranga Reddy Gardens street, Ward 192, Zone 15 Sholinganallur, Chennai, Sholinganallur, Tamil Nadu, 600096, India"
Medchal Malkajgiri,Telangana,17.53498345,78.5246387350238,"Medchal–Malkajgiri, Telangana, India"
Unknown,Telangana,6.40258995,43.3983820184895,"Unknown, Somali Region, Ethiopia"
Warangal Urban,Telangana,18.02625695,79.4644449399663,"Warangal Urban, Telangana, India"
Vikarabad,Telangana,17.2702855,77.7452970063738,"Vikarabad, Telangana, India"
Adilabad,Telangana,19.5,78.5,"Adilabad, Telangana, India"
Nirmal,Telangana,19.09152095,78.3966089842907,"Nirmal, Telangana, India"
Nizamabad,Telangana,26.05531795,82.9931386793733,"Nizamabad, Azamgarh, Uttar Pradesh, 276305, India"
Peddapalli,Telangana,18.62065305,79.495017108829,"Peddapalli, Telangana, India"
Sangareddy,Telangana,17.86859205,77.8228199507381,"Sangareddy, Telangana, India"
Jagitial,Telangana,18.7971269,78.9224727,"Sri Sai Nursing Home - Jagitial, JambiGadde, Jagtial, Jagtial mandal, Jagtial, Telangana, 505327, India"
Jogulamba Gadwal,Telangana,16.0999202,77.7341583507752,"Jogulamba Gadwal, Telangana, India"
Mahabubnagar,Telangana,16.69656855,77.9591146208969,"Mahabubnagar, Telangana, India"
Suryapet,Telangana,17.08001385,79.7925329742427,"Suryapet, Telangana, India"
Italians*,Rajasthan,-28.7975284,-52.5148605596936,"Italian's, Rodovia Governador Leonel de Moura Brizola, Botucaray, Sede, Soledade, Região Geográfica Imediata de Soledade, Região Geográfica Intermediária de Passo Fundo, Rio Grande do Sul, South Region, 99300-000, Brazil"
Jaipur,Rajasthan,26.916194,75.820349,"Jaipur, Jaipur Tehsil, Jaipur, Rajasthan, 302001, India"
Jhunjhunu,Rajasthan,28.1287995,75.3992581,"Jhunjhunu, Jhunjhunun Tehsil, Jhunjhunun, Rajasthan, 333001, India"
Bhilwara,Rajasthan,25.48877345,74.6996128358402,"Bhilwara, Rajasthan, India"
Jodhpur,Rajasthan,26.2967719,73.0351433,"Jodhpur, Jodhpur Tehsil, Jodhpur, Rajasthan, India"
Pali,Rajasthan,43.8148706,18.5673202,"Pale, Pale municipality, City of East Sarajevo, Republika Srpska, 71420, Bosnia and Herzegovina"
Sikar,Rajasthan,27.662826,75.0279262869133,"Sikar, Rajasthan, India"
Pratapgarh,Rajasthan,25.75,81.75,"Pratāpgarh, Pratapgarh, Uttar Pradesh, India"
Dungarpur,Rajasthan,23.666667,73.75,"Dūngarpur, Dungarpur, Rajasthan, India"
Churu,Rajasthan,28.2061443,74.6919072996346,"Churu, Rajasthan, India"
Ajmer,Rajasthan,26.4691,74.639,"Ajmer, Ajmer Tehsil, Ajmer, Rajasthan, India"
Evacuees,Rajasthan,51.4552682,-2.5898439,"Bristol Evacuees, Newgate, Temple, Broadmead, Bristol, City of Bristol, South West England, England, BS1, United Kingdom"
Alwar,Rajasthan,27.63907705,76.6144524902045,"Alwar, Rajasthan, India"
Tonk,Rajasthan,26.12214725,75.6637537393224,"Tonk, Rajasthan, India"
Dhaulpur,Rajasthan,26.6533959,77.6242055929516,"Dhaulpur, Rajasthan, India"
Udaipur,Rajasthan,24.578721,73.6862571,"Udaipur, Rajasthan, 313001, India"
Bharatpur,Rajasthan,27.26521245,77.3691255473912,"Bharatpur, Rajasthan, India"
Bikaner,Rajasthan,28.0159286,73.3171367,"Bikaner, Bikaner Tehsil, Bikaner, Rajasthan, 334001, India"
Dausa,Rajasthan,26.80486585,76.4437456992933,"Dausa, Rajasthan, India"
Banswara,Rajasthan,23.4930788,74.3484023131062,"Banswara, Rajasthan, India"
Karauli,Rajasthan,26.51668105,77.0577297651736,"Karauli, Rajasthan, India"
Nagaur,Rajasthan,27.0607859,74.1766753758271,"Nagaur, Rajasthan, India"
Jaisalmer,Rajasthan,27.02801615,70.7785056232077,"Jaisalmer, Rajasthan, India"
Kota,Rajasthan,25.1968256,76.0008933088555,"Kota, Rajasthan, India"
Jhalawar,Rajasthan,24.3132368,76.52223626123,"Jhalawar, Rajasthan, India"
Barmer,Rajasthan,25.5819034,71.619662427772,"Barmer, Rajasthan, India"
Italians*,Haryana,-28.7975284,-52.5148605596936,"Italian's, Rodovia Governador Leonel de Moura Brizola, Botucaray, Sede, Soledade, Região Geográfica Imediata de Soledade, Região Geográfica Intermediária de Passo Fundo, Rio Grande do Sul, South Region, 99300-000, Brazil"
Gurugram,Haryana,28.4646148,77.0299194,"Gurugram, Haryana, India"
Faridabad,Haryana,28.402837,77.3085626,"Faridabád, Faridabad, Haryana, 121001, India"
Panipat,Haryana,29.3912753,76.9771675,"Panipat, Haryana, 132100, India"
Panchkula,Haryana,30.61621645,77.0419780432187,"Panchkula, Haryana, India"
Sonipat,Haryana,29.0033144,77.0167323,"Sonipat, Haryana, 131001, India"
Palwal,Haryana,28.12502575,77.3583130077305,"Palwal, Haryana, India"
Ambala,Haryana,30.3843674,76.770421,"Ambala, Haryana, 134002, India"
Sirsa,Haryana,29.583333,75.083333,"Sirsa, Haryana, India"
Hisar,Haryana,29.168807,75.7461103,"Hisar, Haryana, India"
Rohtak,Haryana,28.9010899,76.5801935,"Rohtak, Haryana, 124001, India"
Nuh,Haryana,28.09734515,77.0508558210185,"Nuh, Haryana, 122103, India"
Karnal,Haryana,29.6803266,76.9896254,"Karnal, Haryana, 132001, India"
Bhiwani,Haryana,28.7931703,76.1391283,"Bhiwani, Bhiwani district, Haryana, 125021, India"
Kaithal,Haryana,29.74477075,76.3509277228478,"Kaithal, Haryana, India"
Charki Dadri,Haryana,6.40258995,43.3983820184895,Unknown
Jind,Haryana,29.5,76.25,"Jīnd, Jind, Haryana, India"
Fatehabad,Haryana,27.02766825,78.2074341134146,"Fatehabad, Agra, Uttar Pradesh, 283111, India"
Agra,Uttar Pradesh,27.1752554,78.0098161,"Agra, Uttar Pradesh, 280001, India"
Ghaziabad,Uttar Pradesh,28.711241,77.4445372,"Ghaziabad, Uttar Pradesh, India"
Lucknow,Uttar Pradesh,26.8381,80.9346001,"Lucknow, Sadar, Lucknow, Uttar Pradesh, 226019, India"
Gautam Buddha Nagar,Uttar Pradesh,28.36760975,77.597403263699,"Gautam Buddha Nagar, Uttar Pradesh, India"
Kheri,Uttar Pradesh,28.18478255,80.712930341278,"Kheri, Uttar Pradesh, India"
Moradabad,Uttar Pradesh,28.8638424,78.805778330911,"Moradabad, Uttar Pradesh, India"
Varanasi,Uttar Pradesh,25.3356491,83.0076292,"Varanasi, Sadar, Varanasi, Uttar Pradesh, 221101, India"
Kanpur Nagar,Uttar Pradesh,26.4402119,80.2693051341664,"Kanpur Nagar, Uttar Pradesh, India"
Pilibhit,Uttar Pradesh,28.49520765,80.1075408001808,"Pilibhit, Uttar Pradesh, India"
Jaunpur,Uttar Pradesh,25.7955927,82.4883409750439,"Jaunpur, Uttar Pradesh, India"
Baghpat,Uttar Pradesh,28.97240405,77.3331528493822,"Baghpat, Uttar Pradesh, 250609, India"
Shamli,Uttar Pradesh,29.5008816,77.3483825854086,"Shamli, Uttar Pradesh, India"
Meerut,Uttar Pradesh,28.916667,77.683333,"Meerut, Uttar Pradesh, India"
Bareilly,Uttar Pradesh,28.457876,79.4055709374306,"Bareilly, Uttar Pradesh, India"
Bulandshahr,Uttar Pradesh,28.38886085,77.9747977259812,"Bulandshahr, Uttar Pradesh, India"
Basti,Uttar Pradesh,27.25,83,"Basti, Siddharth Nagar, Uttar Pradesh, India"
Hardoi,Uttar Pradesh,27.33857665,80.0975264641719,"Hardoi, Uttar Pradesh, India"
Shahjahanpur,Uttar Pradesh,27.91263315,79.7465629486983,"Shahjahanpur, Uttar Pradesh, India"
Firozabad,Uttar Pradesh,27.17736635,78.3899119795118,"Firozabad, Uttar Pradesh, India"
Azamgarh,Uttar Pradesh,26.02269675,83.0288734311485,"Azamgarh, Uttar Pradesh, India"
Saharanpur,Uttar Pradesh,29.9880774,77.5081299470512,"Saharanpur, Uttar Pradesh, India"
Pratapgarh,Uttar Pradesh,25.75,81.75,"Pratāpgarh, Pratapgarh, Uttar Pradesh, India"
Hapur,Uttar Pradesh,28.7406125,77.8354255651901,"Hapur, Uttar Pradesh, India"
Ghazipur,Uttar Pradesh,25.6035084,83.5074540488714,"Ghazipur, Uttar Pradesh, India"
Banda,Uttar Pradesh,-36.3789925,-60.3855889,"Buenos Aires, Argentina"
Mahrajganj,Uttar Pradesh,27.18273965,83.4908550985302,"Mahrajganj, Uttar Pradesh, India"
Hathras,Uttar Pradesh,27.57324325,78.1117386675172,"Hathras, Uttar Pradesh, India"
Mirzapur,Uttar Pradesh,24.9356347,82.6477012981165,"Mirzapur, Uttar Pradesh, India"
Rae Bareli,Uttar Pradesh,26.25,81.25,"Rae Bareli, Rae Bareilly, Uttar Pradesh, India"
Bara Banki,Uttar Pradesh,26.9013312,81.2151601,"Bāra Banki, Barabanki, Uttar Pradesh, 225001, India"
Auraiya,Uttar Pradesh,26.65573395,79.5150470118183,"Auraiya, Uttar Pradesh, India"
Mathura,Uttar Pradesh,27.633333,77.583333,"Mathura, Uttar Pradesh, 281406, India"
Budaun,Uttar Pradesh,28.06831165,79.0460731207929,"Budaun, Uttar Pradesh, India"
Kaushambi,Uttar Pradesh,25.53609455,81.446728387646,"Kaushambi, Uttar Pradesh, India"
Bijnor,Uttar Pradesh,29.40604895,78.4808783991788,"Bijnor, Uttar Pradesh, India"
Prayagraj,Uttar Pradesh,25.4381302,81.8338005,"Prayagraj, Allahabad, Prayagraj, Uttar Pradesh, 211001, India"
Sitapur,Uttar Pradesh,27.5046392,80.8294658342082,"Sitapur, Uttar Pradesh, India"
Muzaffarnagar,Uttar Pradesh,29.44800635,77.7406850256867,"Muzaffarnagar, Uttar Pradesh, India"
Amroha,Uttar Pradesh,28.9233969,78.4883169326268,"Amroha, Jyotiba Phule Nagar, Uttar Pradesh, India"
Rampur,Uttar Pradesh,28.79406825,79.1859304458554,"Rampur, Uttar Pradesh, India"
Bhadohi,Uttar Pradesh,25.42292275,82.4884370808858,"Bhadohi, Sant Ravidas Nagar, Uttar Pradesh, India"
Leh,Ladakh,34.1642029,77.5848133,"Leh, Leh District, Ladakh, 0194101, India"
Kargil,Ladakh,34.42089435,75.6654859812186,"Kargil, Kargil District, Ladakh, 194103, India"
Kancheepuram,Tamil Nadu,12.87960515,79.7042761529799,"Kancheepuram, Kanchipuram district, Tamil Nadu, India"
Chennai,Tamil Nadu,13.0801721,80.2838331,"Chennai, Chennai district, Tamil Nadu, India"
Erode,Tamil Nadu,11.3692044,77.6766268684179,"Erode, Erode district, Tamil Nadu, India"
Coimbatore,Tamil Nadu,11.0018115,76.9628425,"Coimbatore, Coimbatore North, Coimbatore district, Tamil Nadu, 641001, India"
Tirunelveli,Tamil Nadu,8.8082342,77.8114843,"Tirunelveli, Manur, Tirunelveli Kattabo, Tamil Nadu, 627001, India"
Tiruppur,Tamil Nadu,10.78322705,77.5260478009684,"Tiruppur, Tamil Nadu, India"
Madurai,Tamil Nadu,9.9261153,78.1140983,"Anna Nagar, Madurai, Madurai South, Madurai district, Tamil Nadu, India"
Chengalpattu,Tamil Nadu,12.76657415,79.9993190682149,"Chengalpattu, Chengalpattu district, Tamil Nadu, India"
Salem,Tamil Nadu,44.9391565,-123.033121,"Salem, Marion County, Oregon, United States of America"
Ranipet,Tamil Nadu,12.9272641,79.3330076,"Ranipet, Wallajah, Ranipet disrtict, Tamil Nadu, 632401, India"
Thanjavur,Tamil Nadu,10.7860267,79.1381497,"Thanjavur, Thanjavur district, Tamil Nadu, 613001, India"
Vellore,Tamil Nadu,12.7948109,79.0006410968549,"Vellore, Vellore district, Tamil Nadu, India"
Virudhunagar,Tamil Nadu,9.5208936,77.8784563961865,"Virudhunagar, Virudhunagar district, Tamil Nadu, 626001, India"
Karur,Tamil Nadu,10.9301522,78.0848545457289,"Karur, Karur district, Tamil Nadu, India"
Tiruvannamalai,Tamil Nadu,12.22721295,79.0701555490617,"Tiruvannamalai, Tiruvanamalai district, Tamil Nadu, India"
Viluppuram,Tamil Nadu,11.9137874,79.5078929794277,"Viluppuram, Viluppuram district, Tamil Nadu, India"
Namakkal,Tamil Nadu,11.2191319,78.2373980177996,"Namakkal, Namakkal district, Tamil Nadu, India"
Kanniyakumari,Tamil Nadu,8.0879641,77.5467414,"Kanniyakumari, Main Road, Vavaturai, Agastheeswaram, Kanyakumari, Agastheeswaram, Kanyakumari district, Tamil Nadu, 629702, India"
Thoothukkudi,Tamil Nadu,8.7567452,78.0797526601986,"Thoothukkudi, Thoothukkudi district, Tamil Nadu, India"
Theni,Tamil Nadu,9.9696643,77.4742004852482,"Theni, Theni district, Tamil Nadu, India"
Dindigul,Tamil Nadu,10.3303299,78.0673979084697,"Dindigul, Dindigul district, Tamil Nadu, India"
Sivaganga,Tamil Nadu,9.851231,78.5304715482072,"Sivaganga, Sivagangai district, Tamil Nadu, India"
Tirupathur,Tamil Nadu,12.4533064,78.5529085702292,"Tirupathur, Tirupattur district, Tamil Nadu, India"
Thiruvarur,Tamil Nadu,10.73618605,79.6331865943763,"Thiruvarur, Thiruvarur district, Tamil Nadu, India"
Ramanathapuram,Tamil Nadu,9.3895523,78.859070715215,"Ramanathapuram, Ramanathapuram district, Tamil Nadu, India"
Thiruvallur,Tamil Nadu,13.13014755,79.9243538625497,"Thiruvallur, Thiruvallur district, Tamil Nadu, India"
Nagapattinam,Tamil Nadu,10.8056276,79.824659783024,"Nagapattinam, Nagapattinam district, Tamil Nadu, India"
Cuddalore,Tamil Nadu,11.74269375,79.7503064417194,"Cuddalore, Cuddalore district, Tamil Nadu, 607002, India"
Kallakurichi,Tamil Nadu,11.79468465,79.0388210620082,"Kallakurichi, Tamil Nadu, India"
Perambalur,Tamil Nadu,11.2287716,78.8182555496278,"Perambalur, Perambalur district, Tamil Nadu, India"
Tiruchirappalli,Tamil Nadu,10.804973,78.6870296,"Tiruchirappalli, Tiruchchirappalli district, Tamil Nadu, 620001, India"
The Nilgiris,Tamil Nadu,11.4,76.7,"The Nilgiris, The Nilgiris district, Tamil Nadu, 643001, India"
Ariyalur,Tamil Nadu,11.07603595,79.1174553818274,"Ariyalur, Ariyalur district, Tamil Nadu, India"
Tenkasi,Tamil Nadu,9.09407535,77.4758368983329,"Tenkasi, Tamil Nadu, India"
Jammu,Jammu and Kashmir,32.7185614,74.8580917,"Jammu, Jammu and Kashmir, 180001, India"
Srinagar,Jammu and Kashmir,34.0747444,74.8204443,"Srinagar, Srinagar (South), Srinagar, Jammu and Kashmir, 190010, India"
Bandipore,Jammu and Kashmir,6.40258995,43.3983820184895,Unknown
Unknown,Jammu and Kashmir,6.40258995,43.3983820184895,"Unknown, Somali Region, Ethiopia"
Rajouri,Jammu and Kashmir,33.3772495,74.3132332,"Rajouri, Rajauri, Jammu and Kashmir, India"
Badgam,Jammu and Kashmir,33.9099319,74.6291442577981,"Badgam, Jammu and Kashmir, India"
Baramula,Jammu and Kashmir,34.2086903,74.343498,"Baramulla, Baramula, Jammu and Kashmir, 193101, India"
Shupiyan,Jammu and Kashmir,33.718807,74.8333311,"Shupiyan, Shopian, Jammu and Kashmir, 192303, India"
Udhampur,Jammu and Kashmir,33,75.166667,"Udhampur, Jammu and Kashmir, 182101, India"
Kashmir,Jammu and Kashmir,34.9271029,75.3931000539022,"Kashmir, Baltistān District, Gilgit-Baltistan, Pakistan"
Bengaluru,Karnataka,12.9791198,77.5912997,"Bengaluru, Bangalore North, Bangalore Urban, Karnataka, India"
Kalaburagi,Karnataka,17.166667,77.083333,"Kalaburagi, Kalaburagi district, Karnataka, India"
Kodagu,Karnataka,12.3822808,75.6652353358621,"Kodagu, Karnataka, India"
Chikkaballapura,Karnataka,13.4358702,77.7312434,"Chikkaballapura, Chikkaballapura taluk, Chikkaballapura district, Karnataka, 562101, India"
Mysuru,Karnataka,12.3051828,76.6553609,"Mysuru, Mysuru taluk, Mysuru district, Karnataka, 570001, India"
Dharwad,Karnataka,15.4540505,75.0066516,"Dharwad, Dharawada taluku, Dharwad district, Karnataka, 580001, India"
Uttara Kannada,Karnataka,14.72447415,74.6422373449661,"Uttara Kannada, Karnataka, India"
Dakshina Kannada,Karnataka,12.82133045,75.2276716265037,"Dakshina Kannada, Karnataka, India"
Udupi,Karnataka,13.3419169,74.7473232,"Udupi, Udupi taluku, Udupi district, Karnataka, 576101, India"
Davanagere,Karnataka,14.4661266,75.9206361,"Davanagere, Davanagere taluku, Davanagere district, Karnataka, 577000, India"
Tumakuru,Karnataka,13.3400771,77.1006208,"Tumakuru, Tumkur taluk, Tumkur district, Karnataka, 572101, India"
Ballari,Karnataka,15.2485413,76.8323648,"Ballari, Bellary district, Karnataka, India"
Bidar,Karnataka,43.4391702,-1.5898909,"Bidart, Bayonne, Pyrénées-Atlantiques, New Aquitaine, Metropolitan France, 64210, France"
Bagalkote,Karnataka,16.28998085,75.5825586503011,"Bagalkote district, Karnataka, India"
Belagavi,Karnataka,15.8572666,74.5069343,"Belagavi, Belagavi taluku, Belgaum district, Karnataka, 590001, India"
Bengaluru Rural,Karnataka,13.18077825,77.3417423692337,"Bangalore Rural, Karnataka, India"
Gadag,Karnataka,15.4263647,75.6300786,"Gadag, Gadag taluk, Gadag district, Karnataka, 582101, India"
Mandya,Karnataka,12.5238888,76.8961961,"Mandya, Mandya taluk, Mandya district, Karnataka, 571401, India"
Pune,Maharashtra,18.521428,73.8544541,"Pune, Pune City, Pune, Maharashtra, 411001, India"
Mumbai,Maharashtra,18.9387711,72.8353355,"Mumbai, Mumbai City, Maharashtra, India"
Nagpur,Maharashtra,21.1498134,79.0820556,"Nagpur, Nagpur District, Maharashtra, 440001, India"
Ahmadnagar,Maharashtra,19.25,74.75,"Ahmadnagar, Ahmednagar, Maharashtra, India"
Thane,Maharashtra,19.1943294,72.9701779,"Thane, Maharashtra, India"
Raigarh,Maharashtra,22.5,83.5,"Raigarh, Chhattisgarh, India"
Yavatmal,Maharashtra,20.15,78.35,"Yavatmal, Maharashtra, 445300, India"
Aurangabad,Maharashtra,19.877263,75.3390241,"Aurangabad, Maharashtra, 431002, India"
Ratnagiri,Maharashtra,17.2826079,73.4569787039826,"Ratnagiri, Maharashtra, India"
Palghar,Maharashtra,19.68086385,72.8253734251134,"Palghar, Maharashtra, India"
Sangli,Maharashtra,16.8502534,74.5948885,"Sangli, Miraj, Sangli district, Maharashtra, 416416, India"
Satara,Maharashtra,17.63612885,74.2982780760178,"Satara, Maharashtra, India"
Sindhudurg,Maharashtra,16.1357193,73.6522086018358,"Sindhudurg, Maharashtra, India"
Gondiya,Maharashtra,21.1456285,80.2683867485623,"Gondiya, Maharashtra, India"
Kolhapur,Maharashtra,16.7028412,74.2405329,"Kolhapur, Maharashtra, 416003, India"
Other States*,Maharashtra,37.5269599,-79.1971496,"General Alberts Other Dam, Amherst County, Virginia, 24574, United States of America"
Jalgaon,Maharashtra,20.84351185,75.5259265875603,"Jalgaon, Maharashtra, India"
Buldana,Maharashtra,20.46134405,76.0962189992149,"Buldana, Buldhana, Maharashtra, India"
Nashik,Maharashtra,20.0112475,73.7902364,"Nashik, Maharashtra, 422001, India"
Osmanabad,Maharashtra,18.16984395,76.1179632115957,"Osmanabad, Maharashtra, India"
Washim,Maharashtra,20.28792095,77.2360628106104,"Washim, Maharashtra, India"
Hingoli,Maharashtra,19.54140965,77.1737660131752,"Hingoli, Maharashtra, India"
Amravati,Maharashtra,21.15454115,77.6442961799874,"Amravati, Maharashtra, India"
Latur,Maharashtra,18.35146855,76.7551212230513,"Latur, Maharashtra, India"
Jalna,Maharashtra,19.9182328,75.8686246900443,"Jalna, Maharashtra, India"
Akola,Maharashtra,20.7618624,77.1921716252462,"Akola, Maharashtra, India"
Bid,Maharashtra,18.9918442,75.9097839980971,"Bid, Maharashtra, India"
Dhule,Maharashtra,21.13050145,74.4789118055123,"Dhule, Maharashtra, India"
Amritsar,Punjab,31.6343083,74.8736788,"Amritsar, Amritsar I Tahsil, Amritsar, Punjab, 143001, India"
Shahid Bhagat Singh Nagar,Punjab,6.40258995,43.3983820184895,Unknown
S.A.S. Nagar,Punjab,30.8830056,75.8697315,"STREET NO.3/6, S.A.S. NAGAR, Gurudev Nagar, Ludhiana, Ludhiana (West) Tahsil, Ludhiana, Punjab, 141003, India"
Hoshiarpur,Punjab,31.60857425,75.8464424689095,"Hoshiarpur, Punjab, India"
Jalandhar,Punjab,31.29201065,75.5680577225391,"Jalandhar, Punjab, India"
Ludhiana,Punjab,30.9090157,75.851601,"Ludhiana, Ludhiana (West) Tahsil, Ludhiana, Punjab, 141001, India"
Patiala,Punjab,30.2090874,76.3398720856221,"Patiala, Punjab, India"
Rupnagar,Punjab,31.09168085,76.5272673916138,"Rupnagar, Punjab, India"
Mansa,Punjab,29.8769971,75.4889866137018,"Mansa, Punjab, India"
Pathankot,Punjab,32.3017104,75.6586424662208,"Pathankot, Punjab, India"
Faridkot,Punjab,30.60092505,74.7947742284045,"Faridkot, Punjab, India"
Barnala,Punjab,30.3704685,75.504017418548,"Barnala, Punjab, India"
Fatehgarh Sahib,Punjab,30.6600764,76.3800216371003,"Fategarh Sahib, Punjab, India"
Kapurthala,Punjab,31.38524095,75.305522739894,"Kapurthala, Punjab, India"
Moga,Punjab,30.7839866,75.1605742254116,"Moga, Punjab, India"
Sri Muktsar Sahib,Punjab,30.4692,74.5182,"Sri Muktsar Sahib, Muktsar Tahsil, Muktsar, Punjab, 152026, India"
Sangrur,Punjab,30.2093363,75.8184224340909,"Sangrur, Punjab, India"
S.P.S. Nellore,Andhra Pradesh,6.40258995,43.3983820184895,Unknown
Prakasam,Andhra Pradesh,15.5,79.5,"Prakasam, Andhra Pradesh, India"
Visakhapatnam,Andhra Pradesh,17.7231276,83.3012842,"Visakhapatnam, Visakhapatnam (Urban), Visakhapatnam, Andhra Pradesh, 530001, India"
East Godavari,Andhra Pradesh,17.233496,81.7225986,"East Godavari, Andhra Pradesh, India"
Krishna,Andhra Pradesh,16.6691525,80.7190024,"Krishna, Andhra Pradesh, India"
Chittoor,Andhra Pradesh,13.1601048,79.155550618036,"Chittoor, Andhra Pradesh, 517001, India"
Guntur,Andhra Pradesh,16.2915189,80.4541588,"Guntur, Andhra Pradesh, 522001, India"
Kurnool,Andhra Pradesh,15.8309251,78.0425373,"Kurnool, Andhra Pradesh, 518001, India"
Anantapur,Andhra Pradesh,14.6546235,77.5562598422456,"Anantapur, Andhra Pradesh, India"
West Godavari,Andhra Pradesh,17,81.166667,"West Godavari, Andhra Pradesh, India"
Y.S.R.,Andhra Pradesh,40.446495,-74.3859831,"South River, Middlesex County, New Jersey, 08882, United States of America"
Dehradun,Uttarakhand,30.3255646,78.0436813,"Dehradun, Uttarakhand, 248001, India"
Pauri Garhwal,Uttarakhand,29.84591115,78.7076674632055,"Pauri Garhwal, Uttarakhand, India"
Udham Singh Nagar,Uttarakhand,29.0480988,79.4313133223357,"Udham Singh Nagar, Uttarakhand, India"
Nainital,Uttarakhand,29.2031392,79.4176945,"Nainital, Uttarakhand, India"
Haridwar,Uttarakhand,29.9384473,78.1452985,"Haridwar, Hardwar, Haridwar, Uttarakhand, 249401, India"
Almora,Uttarakhand,29.703095,79.4331702332672,"Almora, Uttarakhand, India"
Unknown,Uttarakhand,6.40258995,43.3983820184895,"Unknown, Somali Region, Ethiopia"
Khordha,Odisha,20.22564715,85.5605946512523,"Khordha, Odisha, India"
Bhadrak,Odisha,21.0633288,86.5053731,"Bhadrak, Bhadrak Rural, Bhadrak, Odisha, 756100, India"
Cuttack,Odisha,20.4686,85.8792,"Cuttack, Cuttack (M.Corp.) P.S, Cuttack, Odisha, 753001, India"
Puri,Odisha,19.8076083,85.8252538,"Puri, Puri (M), Puri, Odisha, 752001, India"
Jajapur,Odisha,20.8277892,86.3798352591519,"Jajapur, Odisha, 755001, India"
Kalahandi,Odisha,19.75,83,"Kālāhandi, Kalahandi, Odisha, India"
Kendrapara,Odisha,20.50040085,86.4317062279648,"Kendrapara, Odisha, India"
Dhenkanal,Odisha,20.75,85.5,"Dhenkānāl, Dhenkanal, Odisha, India"
Unknown,Odisha,6.40258995,43.3983820184895,"Unknown, Somali Region, Ethiopia"
Mahe,Puducherry,11.7021978,75.5364701,"Mahe, Mahe Taluk, Mahe district, Puducherry, 673310, India"
Puducherry,Puducherry,11.9340568,79.8306447,"Puducherry, Puducherry Taluk, Puducherry district, Puducherry, 605001, India"
Kolkata,West Bengal,22.5677459,88.3476023,"Kolkata, West Bengal, 700069, India"
North 24 Parganas,West Bengal,22.7182799,88.6424809089852,"North 24 Parganas, West Bengal, India"
Nadia,West Bengal,23.48454125,88.5567630747054,"Nadia, West Bengal, India"
Medinipur East,West Bengal,22.4207025,87.3269963,"Medinipur, Midnapore, Paschim Medinipur, West Bengal, 721101, India"
Kalimpong,West Bengal,27.07169,88.4729,"Kalimpong, Kalimpong -I, Kalimpong, West Bengal, 734301, India"
Hooghly,West Bengal,22.9052114,88.3760639,"Hooghly, Grand Trunk Road, Chunchura, Chinsurah - Magra, Hugli, West Bengal, 712123, India"
Howrah,West Bengal,22.5882216,88.323139,"Howrah, Haora, Howrah, West Bengal, 711101, India"
South 24 Parganas,West Bengal,22.1815262,88.5378048398994,"South 24 Parganas, West Bengal, India"
Unknown,West Bengal,6.40258995,43.3983820184895,"Unknown, Somali Region, Ethiopia"
Chandigarh,Chandigarh,30.7194022,76.7646552,"Chandigarh, 160033, India"
Raipur,Chhattisgarh,21.2379469,81.6336833,"Raipur, Raipur Tahsil, Raipur, Chhattisgarh, 493332, India"
Rajnandgaon,Chhattisgarh,20.9727404,80.6915554826358,"Rajnandgaon, Chhattisgarh, India"
Bilaspur,Chhattisgarh,28.8680526,79.2983850146012,"Bilaspur, Rampur, Uttar Pradesh, 244921, India"
Durg,Chhattisgarh,21.19903535,81.3979545573657,"Durg, Chhattisgarh, India"
Korba,Chhattisgarh,22.51976955,82.6295146241682,"Korba, Chhattisgarh, India"
Unknown,Chhattisgarh,6.40258995,43.3983820184895,"Unknown, Somali Region, Ethiopia"
Rajkot,Gujarat,22.3051991,70.8028335,"Rajkot, Rajkot Taluka, Rajkot, Gujarat, 360001, India"
Surat,Gujarat,45.9383,3.2553,"Surat, Riom, Puy-de-Dôme, Auvergne-Rhône-Alpes, Metropolitan France, 63720, France"
Ahmadabad,Gujarat,23.0216238,72.5797068,"Ahmedabad, Ahmadabad City Taluka, Ahmedabad District, Gujarat, 380001, India"
Vadodara,Gujarat,22.2973142,73.1942567,"Vadodara, Vadodara Taluka, Vadodara District, Gujarat, 390001, India"
Gandhinagar,Gujarat,23.2232877,72.6492267,"Gandhinagar, Gandhinagar Taluka, Gandhinagar District, Gujarat, 382021, India"
Kachchh,Gujarat,23.583333,70,"Kachchh, Bhuj Taluka, Kutch District, Gujarat, India"
Mahesana,Gujarat,23.666667,72.5,"Mahesana, Mahesana District, Gujarat, India"
Bhavnagar,Gujarat,21.7718836,72.1416449,"Bhavnagar, Bhavnagar Taluka, Bhavnagar District, Gujarat, 364001, India"
Porbandar,Gujarat,21.6409,69.611,"Porbandar, Porbandar Taluka, Porbandar District, Gujarat, 360500, India"
Gir Somnath,Gujarat,20.8907001,70.4025266,"Somnath, Veraval, Patan Veraval Taluka, Gir Somnath District, Gujarat, 362200, India"
Panch Mahals,Gujarat,23,74,"Pānch Mahāls, Dahod District, Gujarat, India"
Patan,Gujarat,23.77405735,71.6837346566873,"Patan, Gujarat, India"
Chota Udaipur,Gujarat,6.40258995,43.3983820184895,Unknown
Jamnagar,Gujarat,22.4732415,70.0552102,"Jamnagar, Jamnagar City Taluka, Jamnagar District, Gujarat, India"
Morbi,Gujarat,22.8176662,70.8345928,"Morbi, Morbi Taluka, Morbi District, Gujarat, 363600, India"
Anand,Gujarat,22.5584995,72.9625629,"Anand, Anand Taluka, Anand District, Gujarat, 388001, India"
Sabar Kantha,Gujarat,23.5,73.25,"Sabar Kāntha, Aravalli District, Gujarat, 383315, India"
Dahod,Gujarat,22.8358542,74.2556782,"Dahod, Dahod Taluka, Dahod District, Gujarat, 389100, India"
Bharuch,Gujarat,21.75,73,"Bharūch, Bharuch District, Gujarat, 392021, India"
Kangra,Himachal Pradesh,32.166667,76.25,"Kangra, Himachal Pradesh, India"
Una,Himachal Pradesh,31.583333,76.25,"Una, Himachal Pradesh, India"
Unknown,Himachal Pradesh,6.40258995,43.3983820184895,"Unknown, Somali Region, Ethiopia"
Sirmaur,Himachal Pradesh,30.75,77.5,"Sirmaur, Himachal Pradesh, India"
Jabalpur,Madhya Pradesh,23.1608938,79.9497702,"Jabalpur, Jabalpur Tahsil, Jabalpur, Madhya Pradesh, India"
Bhopal,Madhya Pradesh,23.2530923,77.3962718,"Bhopal, Madhya Pradesh, 462001, India"
Indore,Madhya Pradesh,22.7203616,75.8681996,"Indore, Madhya Pradesh, 452001, India"
Ujjain,Madhya Pradesh,23.174597,75.7851423,"Ujjain, Ujjain Tahsil, Ujjain, Madhya Pradesh, 456001, India"
Gwalior,Madhya Pradesh,26.2037247,78.1573628,"Gwalior, Madhya Pradesh, 474001, India"
Shivpuri,Madhya Pradesh,25.5,78,"Shivpuri, Shivpuri district, Madhya Pradesh, India"
Chhindwara,Madhya Pradesh,22.13983105,78.8096449546799,"Chhindwara, Madhya Pradesh, India"
Morena,Madhya Pradesh,26.166667,77.5,"Morena, Madhya Pradesh, India"
Khargone,Madhya Pradesh,21.8187743,75.6064577,"Khargone, Khargone Tahsil, Khargone, Madhya Pradesh, 451001, India"
Barwani,Madhya Pradesh,21.75194325,74.8917517533849,"Barwani, Madhya Pradesh, India"
Betul,Madhya Pradesh,21.8796162,77.8756812456308,"Betul, Madhya Pradesh, India"
Vidisha,Madhya Pradesh,23.916667,78,"Vidisha, Madhya Pradesh, 464221, India"
Other Region*,Madhya Pradesh,-15.078199,35.5060045,"Other Roads, Machinga, Southern Region, Malawi"
Sheopur,Madhya Pradesh,25.6656611,76.6954843,"Sheopur, Sheopur Tahsil, Sheopur, Madhya Pradesh, 476337, India"
Khandwa,Madhya Pradesh,21.9778642,76.5688282326971,"Khandwa, Madhya Pradesh, India"
Dhar,Madhya Pradesh,22.5,75.25,"Dhār, Dhar, Madhya Pradesh, India"
Hoshangabad,Madhya Pradesh,22.6001502,77.9266452141319,"Hoshangabad, Madhya Pradesh, India"
Raisen,Madhya Pradesh,23.25,78.083333,"Raisen, Madhya Pradesh, India"
Dewas,Madhya Pradesh,23,76.166667,"Dewas, Madhya Pradesh, India"
Sagar,Madhya Pradesh,23.80961225,78.7591136057863,"Sagar, Madhya Pradesh, India"
Shajapur,Madhya Pradesh,23.37074105,76.6205152747579,"Shajapur, Madhya Pradesh, India"
Unknown,Madhya Pradesh,6.40258995,43.3983820184895,"Unknown, Somali Region, Ethiopia"
Munger,Bihar,25.22081165,86.5172036723529,"Munger, Bihar, India"
Patna,Bihar,25.6093239,85.1235252,"Patna, Patna Rural, Patna, Bihar, 800001, India"
Siwan,Bihar,26.1310043,84.391256605952,"Siwan, Bihar, India"
Nalanda,Bihar,25.1364914,85.4436546485568,"Nalanda, NH120, Silao, Nalanda, Bihar, 803111, India"
Lakhisarai,Bihar,25.1677029,86.0593592430402,"Lakhisarai, Bihar, 811311, India"
Gopalganj,Bihar,26.4207265,84.3740640741516,"Gopalganj, Bihar, India"
Gaya,Bihar,24.7964355,85.0079563,"Gaya, Gaya Town C.D.Block, Gaya, Bihar, 823001, India"
Begusarai,Bihar,25.5127194,86.0905710914002,"Begusarai, Bihar, India"
Saran,Bihar,25.90835495,84.7807476059432,"Saran, Bihar, India"
Bhagalpur,Bihar,25.28669805,87.1322535511115,"Bhagalpur, Bihar, India"
Nawada,Bihar,24.818124,85.5185562336921,"Nawada, Bihar, India"
Imphal West,Manipur,24.757326,93.8584785802515,"Imphal West, Manipur, India"
Unknown,Manipur,6.40258995,43.3983820184895,"Unknown, Somali Region, Ethiopia"
Aizawl,Mizoram,23.7414092,92.7209297,"Aizawl, Tlangnuam, Aizwal, Mizoram, 796190, India"
North Goa,Goa,15.60444125,74.0017240630747,"North Goa, Goa, India"
Unknown,Goa,6.40258995,43.3983820184895,"Unknown, Somali Region, Ethiopia"
South Andaman,Andaman and Nicobar Islands,10.7056905,92.4874678963337,"South Andaman, Andaman and Nicobar Islands, India"
North and Middle Andaman,Andaman and Nicobar Islands,12.61123865,92.8316540641493,"North and Middle Andaman, Andaman and Nicobar Islands, 744210, India"
Unknown,Andaman and Nicobar Islands,6.40258995,43.3983820184895,"Unknown, Somali Region, Ethiopia"
Ranchi,Jharkhand,23.3700354,85.3250132,"Ranchi, Kanke, Ranchi, Jharkhand, HINDPIRI, India"
Hazaribagh,Jharkhand,23.9675151,85.4388456859562,"Hazaribagh, Jharkhand, India"
Bokaro,Jharkhand,23.69912795,85.9910689416502,"Bokaro, Jharkhand, India"
Kodarma,Jharkhand,24.54215575,85.6932396589306,"Kodarma, Jharkhand, India"
Cachar,Assam,24.75863995,92.8816647576822,"Cachar, Assam, India"
Kamrup Metropolitan,Assam,26.13526375,91.8616706252462,"Kamrup Metropolitan, Assam, India"
Jorhat,Assam,26.7577925,94.2079645,"Jorhat, Jorhat East, Jorhat, Assam, 785001, India"
Goalpara,Assam,26.1783623,90.6226683,"Goalpara, Balijana, Goalpara, Assam, 783362, India"
Nalbari,Assam,26.42386165,91.4512275462117,"Nalbari, Assam, 781335, India"
South Salmara Mancachar,Assam,6.40258995,43.3983820184895,Unknown
Kamrup,Assam,26.12755515,91.2998714797357,"Kamrup, Assam, India"
Morigaon,Assam,26.252273,92.3548836,"Morigaon Civil Hospital, SH3, Kamalabari, Marigaon, Assam, 782105, India"
Golaghat,Assam,26.40490095,94.0320911212063,"Golaghat, Assam, India"
Lakhimpur,Assam,27.98506015,80.7538453835765,"Lakhimpur, Kheri, Uttar Pradesh, India"
Dhubri,Assam,26.01894625,89.9418895246152,"Dhubri, Assam, India"
Hailakandi,Assam,24.68845365,92.5738152824095,"Hailakandi, Assam, 788151, India"
Lohit,Arunachal Pradesh,28.03501615,96.1713515422068,"Lohit, Arunachal Pradesh, India"
Unknown,Dadra and Nagar Haveli,6.40258995,43.3983820184895,"Unknown, Somali Region, Ethiopia"
Gomati,Tripura,23.4613369,91.6071800381772,"Gomati, Tripura, India"
North Tripura,Tripura,24.0921476,92.2451213501985,"North Tripura, Tripura, 799250, India"
